TEVEL2-9                
1 63237U 25052AD  26136.66113142  .00013946  00000+0  46951-3 0  9997
2 63237  97.3981  32.0688 0004149 244.7481 115.3330 15.30876516 65206
TEVEL2-7                
1 63238U 25052AE  26136.36938715  .00013865  00000+0  47079-3 0  9998
2 63238  97.3984  31.7067 0004258 246.7719 113.3074 15.30601259 65151
TEVEL2-8                
1 63239U 25052AF  26136.18115794  .00013806  00000+0  46912-3 0  9993
2 63239  97.3991  31.4970 0004147 249.1347 110.9450 15.30578989 65122
HADES-ICM               
1 63492U 25052BN  26135.22960770  .00842919  32854-3  18347-2 0  9991
2 63492  97.3754  39.5599 0009891 173.5382 186.6025 15.98249306 65597
FORESAIL-1 PRIME        
1 66778U 25276DS  26136.16936858  .00003477  00000+0  17240-3 0  9997
2 66778  97.4210 210.0321 0002109 176.1142 184.0109 15.18387157 25547
